idx,area,name,addr1,addr2,zipcode,open_info,close_info,type,target1_code,target1_etc,target2_code,target2_etc,item_code,item_etc,lat,lng,sup_obj,sup_num,sup_item,storeType,img_src
348,강남구,삼청골명가 더수제비,서울 강남구 논현로132길 29,"1층 (논현동, 두원빌딩) 더 수제비",23,"11시~8시 (평일),  11시~6시 (토)",일요일,1,2,,,,99,"수제비, 들깨수제비,들깨감자옹심이,감",37.51555641,127.0327484,,동반 1인,"수제비, 들깨수제비,들깨감자옹심이,감",음식점,https://xn--o39akkz01az4ip7f4xzwoa.com/images/header_logo.png
393,강남구,87.5 탭댄스 컴퍼니,서울 강남구 대치동 1016-4,지하 1층,23,오후1시 - 오후 10시,일요일 휴무,2,2,,"01,02",,2,,37.49751412,127.0593834,"결식아동,독거노인",동반 1인,,댄스학원,https://xn--o39akkz01az4ip7f4xzwoa.com//file/store/393/2088cc352fa64fcf8c83926bd66128ef.jpeg
748,강남구,피트니스플랜비,서울 강남구 도곡로 203,남자빌딩3층,23,월-금/08:00~23:00 토/10:00~23:00,일요일,3,,,,,,,37.49277901,127.0410676,,,,,https://xn--o39akkz01az4ip7f4xzwoa.com/images/header_logo.png
729,강남구,바바에스안경원(대치점),서울 강남구 도곡로 449,아가도스빌딩 1층 바바에스 대치점,23,10:00 ~21:00,,3,1,,1,,2,,37.49883014,127.0595582,결식아동,아이 본인만,,안경점,https://xn--o39akkz01az4ip7f4xzwoa.com//file/store/729/26878573b6374758a4a60570e0683f88.jpg
872,강남구,한국전문연주자협회,서울 강남구 선릉로111길 33,,23,9~19,없음,2,3,,"01,02",,99,티켓,37.51007091,127.040892,"결식아동,독거노인",동반 2인,티켓,,https://xn--o39akkz01az4ip7f4xzwoa.com//file/store/872/6765636cd25d451187d3c8cde27283fd.jpeg
454,강남구,우리카페,서울 강남구 언주로69길 16,101,23,10~21,연중무휴,1,2,,"01,02",,1,,37.49642535,127.0439124,"결식아동,독거노인",동반 1인,,,https://xn--o39akkz01az4ip7f4xzwoa.com//file/store/454/610b4ace017b4d89a36834dce81cf9cb.jpg
925,강남구,메이머스트,서울 강남구 테헤란로 143,3층,23,확인요망,,99,,,,,,,37.50061921,127.0348978,,,,회사 사무실,https://xn--o39akkz01az4ip7f4xzwoa.com/images/header_logo.png
64,강남구,법률사무소 서화담,서울 강남구 학동로 335,다른타워 8층 법률사무소 서화담,23,09시 ~ 18시,"토요일, 일요일, 관공서 공휴일 등",99,1,,,,99,급식카드소지학생대상법률서비스,37.51698816,127.0396507,,아이 본인만,급식카드소지학생대상법률서비스,법률 서비스,https://xn--o39akkz01az4ip7f4xzwoa.com/images/header_logo.png
624,강동구,통닭&강동생족발보쌈,서울 강동구 고덕로 390,102-2호 통닭&강동생족발보쌈,25,점심12시~밤12시,"연중무휴 , 포장 배달 전문점",1,99,포장 배달 전문점입니다.,"01,02,99",소방관은 전메뉴 50%할인,99,아동=통닭1마리무료&전메뉴50%할인,37.55662641,127.1687802,"결식아동,독거노인,소방관은 전메뉴 5%할인",포장 배달 전문점입니다.,아동=통닭1마리무료&전메뉴5%할인,음식점,https://xn--o39akkz01az4ip7f4xzwoa.com//file/store/624/2dd385a4bc3045379d557d332228aaca.jpg
833,강동구,벨라로그,서울 강동구 동남로82길 120,203호,25,10:00 ~ 20:00,공휴일 일요일,3,1,,1,,99,주니어컷,37.5600131,127.1637038,결식아동,아이 본인만,주니어컷,미용실,https://xn--o39akkz01az4ip7f4xzwoa.com//file/store/833/4e8e4eeca8ae457298ddcf6d808ef59c.jpeg
512,강동구,암사비치푸드마켓,서울 강동구 상암로 24,2층 암사비치푸드마켓,25,pm 4::30 ~ PM 12:00,없음,1,3,,"01,02",,1,,37.55052146,127.1262047,"결식아동,독거노인",동반 2인,,서양음식전문점,https://xn--o39akkz01az4ip7f4xzwoa.com//file/store/512/b9ceb64d3ffb48caa7b63ad73eb3e65d.jpg
978,강동구,미미고찹쌀꽈배기강동구청점,서울 강동구 성내로 7,1층 101호(성내동),25,09:00 ~ 21:00,"1, 3주 일요일",1,2,,1,,2,,37.53062111,127.1217148,결식아동,동반 1인,,음식점,https://xn--o39akkz01az4ip7f4xzwoa.com//file/store/978/2008936ebe7748d09ecbcc1422f7fc71.jpg
330,강동구,엥겔플랜트,서울 강동구 성안로 39,1층 103호 엥겔커피,25,12:00-24:00,매주 수요일,1,2,,1,,1,,37.52738373,127.1303196,결식아동,동반 1인,,,https://xn--o39akkz01az4ip7f4xzwoa.com//file/store/330/e09c0dd6c3ee424db65318dac9c41e0a.jpg
123,강동구,식사준비 강일점,서울 강동구 아리수로93나길 50,105호 식사준비,25,10:00~20:00,없음,1,1,,1,,1,,37.57209972,127.174498,결식아동,아이 본인만,,미용실,https://xn--o39akkz01az4ip7f4xzwoa.com//file/store/123/efad0554b695440c8f9e44553b09e404.jpg
596,강동구,신참떡볶이 굽은다리역점,서울 강동구 양재대로 1549,신참떡볶이,25,10시30분~22시 30분,없음,1,2,,1,,2,,37.54404843,127.1420544,결식아동,동반 1인,,한식당,https://xn--o39akkz01az4ip7f4xzwoa.com//file/store/596/1c7796014ecd430a9442750f9013d5cf.jpg
654,강동구,라라브레드,서울 강동구 양재대로116길 13,라라브레드 1층,25,11:00 ~ 20:00,x,1,1,,1,,99,직원선택 빵2종,37.53867777,127.1412204,결식아동,아이 본인만,직원선택 빵2종,카페,https://xn--o39akkz01az4ip7f4xzwoa.com/images/header_logo.png
270,강동구,청춘집합소,서울 강동구 진황도로29길 8,,25,확인요망,,99,,,,,,,37.53851199,127.1321077,,,,,https://xn--o39akkz01az4ip7f4xzwoa.com/images/header_logo.png
519,강동구,미화동,서울 강동구 천호대로 1089,b114 미화동,25,10시30분~20시,15-17시,1,1,,1,,2,,37.53660488,127.1331156,결식아동,아이 본인만,,,https://xn--o39akkz01az4ip7f4xzwoa.com//file/store/519/1e8e03053132469f92d50a9cfca774a9.jpg
1045,강동구,허브문화예술창작소,서울 강동구 천호대로 1240-13,1층,25,10:00~8:00,금요일,2,1,,"01,02",,1,,37.53586511,127.1489976,"결식아동,독거노인",아이 본인만,,,https://xn--o39akkz01az4ip7f4xzwoa.com//file/store/1045/bb8e961caafe4b6885b900c99e7d6378.jpg
204,강북구,아이엠,서울 강북구 노해로 41,동아빌딩 2층,10,17시~02시,"월,화요일  17~18시  식사제공가능",1,1,,1,,99,파스타 메뉴,37.63930588,127.0224522,결식아동,아이 본인만,파스타 메뉴,,https://xn--o39akkz01az4ip7f4xzwoa.com//file/store/204/fc4e7e4bf1bf45768d766d1d009db7d5.jpg
844,강북구,인생푸드,서울 강북구 덕릉로 115,1층,10,확인요망,,1,,,"01,99","입양보류아동,무연고아동",,,37.63513651,127.0266419,"결식아동,입양보류아동,무연고아동",,,인터넷 쇼핑몰,https://xn--o39akkz01az4ip7f4xzwoa.com/images/header_logo.png
175,강북구,롯데백화점 미아점 송탄영빈루,서울 강북구 도봉로 62,B2 송탄영빈루,10,10:30~19:30,,1,1,,"01,02",,1,,37.61459298,127.0305177,"결식아동,독거노인",아이 본인만,,,https://xn--o39akkz01az4ip7f4xzwoa.com//file/store/175/69f4969994a6498192ce9ccf5349c4ef.jpg
940,강북구,땅땅치킨 수유점,서울 강북구 삼양로93길 3,1층,10,확인요망,,1,1,,1,,99,1인식사제공(서울회관) 스몰치킨제공,37.63730555,127.0168281,결식아동,아이 본인만,1인식사제공(서울회관) 스몰치킨제공,,https://xn--o39akkz01az4ip7f4xzwoa.com/images/header_logo.png
1042,강북구,달리는커피 서울 삼각산점,서울 강북구 솔샘로 216,진영빌딩 1층 달리는커피,10,평일 10시~20시 /토요일 10시~18시,매주 일요일 휴무,1,1,,"01,02",,1,,37.61989293,127.0166481,"결식아동,독거노인",아이 본인만,,카페,https://xn--o39akkz01az4ip7f4xzwoa.com//file/store/1042/1765af9ee3df48bdaa4a284af888ca75.jpeg
792,강서구,작심스터디카페 발산점,서울 강서구 강서로 324,2층 작심스터디카페 발산점,16,24시간,365일 영업,2,1,,"01,02",,1,,37.55459095,126.8373033,"결식아동,독거노인",아이 본인만,,카페,https://xn--o39akkz01az4ip7f4xzwoa.com//file/store/792/985f3cc53d3f46b8a52208135202d1cc.jpg
199,강서구,마라홀릭,서울 강서구 강서로56길 17,지하1층,16,매일10:30~20:30,없음,1,1,,1,,99,마라탕,37.55993353,126.8404988,결식아동,아이 본인만,마라탕,,https://xn--o39akkz01az4ip7f4xzwoa.com//file/store/199/19e84feb7efa4ee3a7399150c0e0d004.jpg
483,강서구,우리상회,서울 강서구 곰달래로25길 65-27,야채가게,16,09시-20시까지,없음,99,2,,1,,2,,37.53297009,126.8467649,결식아동,동반 1인,,,https://xn--o39akkz01az4ip7f4xzwoa.com//file/store/483/3d55c939f74f4a6bba9796a895880b88.jpg
891,강서구,엘로이카페,서울 강서구 공항대로 164,류마타워 1층 111호 엘로이카페,16,08:00~19:00,2주 4주 일요일,1,2,,"01,02",,99,카드 제시 할 시 1인당 음료 한잔,37.55932597,126.8255148,"결식아동,독거노인",동반 1인,카드 제시 할 시 1인당 음료 한잔,,https://xn--o39akkz01az4ip7f4xzwoa.com//file/store/891/e272ec7f557a4795a75c718a07d3b45a.jpg
31,강서구,양평해장국 강서마곡점,서울 강서구 공항대로 242,2층 212호 양평해장국,16,매일 09 : 00 ~ 21 : 00,"휴무시간 업음, 휴무일 설, 추석 연휴 ",1,99,동반자 모두,1,,1,,37.5584802,126.8343276,결식아동,동반자 모두,,음식점,https://xn--o39akkz01az4ip7f4xzwoa.com//file/store/31/e3da0df3f03a42fcbd1d42e3da8195ae.png
776,강서구,심리상담연구소 문,서울 강서구 공항대로59가길 7,,16,예약제로 운영,,2,99,아동 및 가족,"01,02",,99,심리상담 심리평가 등 심리상담서비스,37.55218449,126.8642673,"결식아동,독거노인",아동 및 가족,심리상담 심리평가 등 심리상담서비스,심리 치료사,https://xn--o39akkz01az4ip7f4xzwoa.com/images/header_logo.png
731,강서구,연어꽃,서울 강서구 등촌동 701,101동 앞 상가 개러지키친 7호,16,16:30~02:00,x,1,1,,"01,02",,1,,37.55983847,126.8470287,"결식아동,독거노인",아이 본인만,,,https://xn--o39akkz01az4ip7f4xzwoa.com//file/store/731/0bd7262dcacd4e249da560a3654f3d9f.jpg
545,강서구,샵일구구공,서울 강서구 마곡동 760-2,"2층 223,4호",16,10:30 - 20:30,"1월1일, 명절당일휴무",3,1,,1,,99,컷트 무료,37.56785424,126.8274661,결식아동,아이 본인만,컷트 무료,미용실,https://xn--o39akkz01az4ip7f4xzwoa.com/images/header_logo.png
717,강서구,EXPER2,서울 강서구 마곡서로 152,B동 221호,16,17:00~00:00,매주 월요일 & 매달 마지막 주의 일요일,1,99,4명까지 가능,"01,02",,99,당일날 제일 맛있는 메뉴들로 제공!,37.56771074,126.8256454,"결식아동,독거노인",4명까지 가능,당일날 제일 맛있는 메뉴들로 제공!,음식점,https://xn--o39akkz01az4ip7f4xzwoa.com//file/store/717/002849b51fed47d6a3f469bc9b9f49c3.jpg
923,강서구,아트포유 셀프사진관,서울 강서구 마곡서로 152,,16,확인요망,,3,2,,"01,02",,1,,37.56771074,126.8256454,"결식아동,독거노인",동반 1인,,사진관,https://xn--o39akkz01az4ip7f4xzwoa.com//file/store/923/83727dbe8caf48919b982183dd85299c.jpg
553,강서구,순희네 꼬마김밥,서울 강서구 마곡중앙로 59-9,103호 순흑네,16,07~20시까지,일요일 휴무,1,1,,1,,1,,37.55884745,126.8256377,결식아동,아이 본인만,,,https://xn--o39akkz01az4ip7f4xzwoa.com//file/store/553/5caf7d0efa7c4ea8a2ac48c243251736.jpg
648,강서구,금수저,서울 강서구 양천로47길 24,2층 금수저"",16,월-금/11:00~20:00 토/11:00~15:00,매주 일요일 휴무,1,3,,2,,99,백숙을 제외한 전메뉴 (1인 1메뉴),37.57151275,126.8379095,독거노인,동반 2인,백숙을 제외한 전메뉴 (1인 1메뉴),,https://xn--o39akkz01az4ip7f4xzwoa.com//file/store/648/ec9eb46e047d4dd0b0eac15365784c9c.jpeg
409,강서구,샌드위치만드는언니,서울 강서구 월정로30길 64,1층 샌드위치만드는언니,16,월-토 10시~9시,매주 일요일,1,1,,1,,2,,37.53487822,126.8394323,결식아동,아이 본인만,,,https://xn--o39akkz01az4ip7f4xzwoa.com//file/store/409/fd5ddc0ddfb94f1a9ff4a11ab49038b9.jpg
366,강서구,청춘푸줏간,서울 강서구 화곡동 348-4,1층정육점,16,9:30~22:00,없음,99,1,,1,,2,,37.53300706,126.8449262,결식아동,아이 본인만,,정육점,https://xn--o39akkz01az4ip7f4xzwoa.com//file/store/366/ce0cb32bfcd4439b9ac3d4e5f346810a.jpg
23,강서구,(주)지니글로벌네트웍스,서울 강서구 화곡동 822-20,2f,16,확인요망,확인요망,99,,,,,,,37.53443312,126.8568023,,,,,https://xn--o39akkz01az4ip7f4xzwoa.com/images/header_logo.png
117,강서구,컴포즈커피 강서구청점,서울 강서구 화곡로 313,1층 컴포즈커피,16,08:00~23:00,없음,1,99,아이 본인 직접 방문,1,,99,원하는 음료 한잔,37.55228371,126.8497029,결식아동,아이 본인 직접 방문,원하는 음료 한잔,커피숍/커피 전문점,https://xn--o39akkz01az4ip7f4xzwoa.com//file/store/117/0cddffd1e88c4b8c919c43c72590f294.jpg
62,강서구,투썸플레이스강서구청점,서울 강서구 화곡로 347,그랜드아이파크 1층/2층,16,오전08:00~오후11:00,연중무휴,1,1,,1,,2,,37.55483518,126.8512924,결식아동,아이 본인만,,카페,https://xn--o39akkz01az4ip7f4xzwoa.com//file/store/62/813981d855e44dbfa89732672a885550.jpg
290,관악구,카핏,서울 관악구 관악로 234,이루는교회 2층 카핏,21,오전10시 ~ 오후7시,일요일.공휴일,1,1,,1,,99,음료1. 디저트1,37.4849602,126.9563,결식아동,아이 본인만,음료1. 디저트1,,https://xn--o39akkz01az4ip7f4xzwoa.com//file/store/290/8422b80e531a49f898ffb9efe1523d60.jpg
676,관악구,까사피에스타,서울 관악구 관악로 251,모두의주방 지하1층 3호,21,오전9시~익일 오전12시,,1,2,,"01,02",,1,,37.48689701,126.9567893,"결식아동,독거노인",동반 1인,,,https://xn--o39akkz01az4ip7f4xzwoa.com/images/header_logo.png
718,관악구,부타앤카츠,서울 관악구 난곡로34길 70,1층 부타앤카츠,21,오전 9시30분 ~ 오후11시,연중무휴,1,99,사장 맘대루,1,,1,,37.47197623,126.9228698,결식아동,사장 맘대루,,,https://xn--o39akkz01az4ip7f4xzwoa.com//file/store/718/a0e1af0cb782421b845be4f5aaaa37bf.jpeg
446,관악구,피자헛난곡2호점,서울 관악구 남부순환로 1508,1층 피자헛,21,10:30~22:30,,99,1,,1,,2,,37.48224817,126.9182755,결식아동,아이 본인만,,음식점,https://xn--o39akkz01az4ip7f4xzwoa.com/images/header_logo.png
738,관악구,커피플래닛,서울 관악구 남부순환로 1508,1층 커피플래닛,21,월-토 7:00-23:00  일9:00-23:00,,1,2,,1,,2,,37.48224817,126.9182755,결식아동,동반 1인,,,https://xn--o39akkz01az4ip7f4xzwoa.com//file/store/738/1dd6af5a42a34a3d9f515b6b3cd7a005.jpg
855,관악구,하루하나,서울 관악구 남부순환로 1904,지하 1층 13호,21,11시~10,없음,1,2,,"01,02",,1,,37.47786558,126.9606899,"결식아동,독거노인",동반 1인,,,https://xn--o39akkz01az4ip7f4xzwoa.com//file/store/855/48be32e426c74b89a6eff42563c8680c.jpg
862,관악구,티나에스테틱,서울 관악구 남현길 7,5층 티나에스테틱,21,11시~10시,일요일 공휴일,99,1,,1,,99,두피케어,37.47606844,126.9776984,결식아동,아이 본인만,두피케어,피부관리실,https://xn--o39akkz01az4ip7f4xzwoa.com//file/store/862/dbf60f693e074a6a97c093016dc999c5.jpg
143,관악구,위드짐,서울 관악구 대학5길 8,지하1층,21,오후2시-오후10시,"목요일, 일요일 ",99,1,,"01,02",,1,,37.46917583,126.9382423,"결식아동,독거노인",아이 본인만,,헬스클럽,https://xn--o39akkz01az4ip7f4xzwoa.com//file/store/143/8f922e71b41145cfa17b490a3101e43c.jpg
263,관악구,커피정류장,서울 관악구 복은길 46,1층 커피정류장,21,9시~9시,매주 월요일 휴무,1,1,,"01,02",,1,,37.47444309,126.9385051,"결식아동,독거노인",아이 본인만,,,https://xn--o39akkz01az4ip7f4xzwoa.com//file/store/263/a7d7b2753cf647c3bd50910050e44c02.jpg
793,관악구,오후의과일,서울 관악구 봉천동 1599-4,2층 오후의과일,21,11~22,"매주화요일(주말토,일은제외)",1,2,,1,,1,,37.47927764,126.9534873,결식아동,동반 1인,,카페,https://xn--o39akkz01az4ip7f4xzwoa.com//file/store/793/28e2d60e920e470fa934696edf041210.jpg
173,관악구,달렘,서울 관악구 봉천동 464-25,1층 Dal.lem,21,화-토 오후2시~오후10시,,1,1,,"01,02",,2,,37.48721399,126.9480721,"결식아동,독거노인",아이 본인만,,,https://xn--o39akkz01az4ip7f4xzwoa.com/images/header_logo.png
514,관악구,피자나라치킨공주,서울 관악구 봉천동 892-2,1층 피자나라치킨공주,21,12~24시,매주 화요일,1,1,,,,99,피치세트,37.48313764,126.9478424,,아이 본인만,피치세트,음식점,https://xn--o39akkz01az4ip7f4xzwoa.com//file/store/514/8498b0c89ecb474aa46961a6907b3491.jpeg
536,관악구,백년카츠 관악점,서울 관악구 봉천로 391,제1싱가동 104호 백년카츠,21,11시 ~ 21시,3시~4시,1,1,,1,,99,"개별메뉴 전부(세트,정식 제외)",37.48347141,126.9432503,결식아동,아이 본인만,"개별메뉴 전부(세트,정식 제외)",돈까스 전문식당,https://xn--o39akkz01az4ip7f4xzwoa.com//file/store/536/26b8acb18b9f40e39c7fe7d10c1be490.jpg
1034,관악구,한우육회마을2호점,서울 관악구 봉천로 520-1,1층 한우육회마을2호점,21,오후6시~9시,일요일휴무,1,2,,1,,99,육회비빔밥,37.47938807,126.9557439,결식아동,동반 1인,육회비빔밥,한식당,https://xn--o39akkz01az4ip7f4xzwoa.com/images/header_logo.png
753,관악구,바다가내손아귀,서울 관악구 신림동 1741,1층 cu편의점 옆,21,24시간,없음,1,99,가족포함,"01,99",소개추천,1,,37.48272396,126.9352285,"결식아동,소개추천",가족포함,,,https://xn--o39akkz01az4ip7f4xzwoa.com//file/store/753/081fbea249c040f6a4eb235dc32141df.jpg
770,관악구,별꿈다락,서울 관악구 장군봉1길 3,101호  별꿈다락,21,12:00~22:00,정기휴일 없음,1,1,,"01,02",,1,,37.48229543,126.9403552,"결식아동,독거노인",아이 본인만,,,https://xn--o39akkz01az4ip7f4xzwoa.com//file/store/770/6f0e5cc9e5ab43169bb21777575181c1.jpg
584,관악구,백가집,서울 관악구 호암로24길 11,1층 백가집,21,오전 11시 ~ 오후 8시,매주 토요일,1,1,,1,,1,,37.47001899,126.9339123,결식아동,아이 본인만,,한식당,https://xn--o39akkz01az4ip7f4xzwoa.com//file/store/584/71cddcaa0bd946979aef23d120417652.jpg
327,광진구,초심스터디카페 구의점,서울 광진구 광나루로 588,3층 초심스터디카페 구의점,6,24시간,없음,2,1,,1,,1,,37.5426904,127.0938461,결식아동,아이 본인만,,,https://xn--o39akkz01az4ip7f4xzwoa.com//file/store/327/e3bd39b5dd354c68b748cfd2983724eb.jpeg
176,광진구,카페더네네,서울 광진구 광나루로20가길 21,1층 카페더네네,6,07:00~17:00,"토요일, 일요일",1,2,,"01,02",,1,,37.54522363,127.0752425,"결식아동,독거노인",동반 1인,,,https://xn--o39akkz01az4ip7f4xzwoa.com//file/store/176/7cf6715299a74ebc930483b9063ee68f.jpg
325,광진구,초심스터디카페 광장점,서울 광진구 광장동 470-10,지하1층 초심스터디카페,6,24시간,365일 영업,2,1,,1,,1,,37.54141746,127.0976335,결식아동,아이 본인만,,,https://xn--o39akkz01az4ip7f4xzwoa.com//file/store/325/5ab428e70dac45cea736b2335220a6a9.jpeg
392,광진구,먹오삼,서울 광진구 구의로 8,1층,6,오전 11:30~ 오후 11:30,평일 오후 3시~5시,1,2,,1,,1,,37.53866603,127.0893767,결식아동,동반 1인,,음식점,https://xn--o39akkz01az4ip7f4xzwoa.com/images/header_logo.png
984,광진구,프레드피자건대점,서울 광진구 아차산로 345,102동 130호,6,09:00 ~ 04:30,연중무휴,1,1,,1,,99,피자L한판+음료,37.53750524,127.081583,결식아동,아이 본인만,피자L한판+음료,피자 전문점,https://xn--o39akkz01az4ip7f4xzwoa.com//file/store/984/1aa72e8914fc4fb1b726fe7be2ea7f78.png
552,광진구,와플소녀,서울 광진구 용마산로22길 12,1층 와플소녀,6,12:00 ~ 19:30,주말,1,99,누구든지!,"01,02",,1,,37.56352347,127.0877256,"결식아동,독거노인",누구든지!,,,https://xn--o39akkz01az4ip7f4xzwoa.com//file/store/552/1632fc534e524b0bbc8c7113dd56fc4c.jpg
673,광진구,주식회사 중원디앤케이,서울 광진구 천호대로119길 6,1층 사무실,6,평일 오전 9:00 ~ 오후 5:00,"주말,공휴일",99,1,,1,,99,핫팩 한달치 30개. 매달 지급^^,37.55515978,127.0861322,결식아동,아이 본인만,핫팩 한달치 3개. 매달 지급^^,제조업체,https://xn--o39akkz01az4ip7f4xzwoa.com//file/store/673/aae330742ab84004a9ede0700d05b5c2.jpg
301,구로구,잉크마루,서울 구로구 개봉로 50,1층 잉크마루,17,오전 10시부터 오후 7시까지,"일요일,공휴일",99,1,,1,,99,"잉크충전, 출력, 복사, 코팅",37.49012558,126.8563095,결식아동,아이 본인만,"잉크충전, 출력, 복사, 코팅",,https://xn--o39akkz01az4ip7f4xzwoa.com//file/store/301/62e8dc91469b40e6a43eeb55dd3b3ef5.jpg
522,구로구,곱창의축복,서울 구로구 경인로 331,007호 곱창의축복,17,오후 12시 저녁 9시,일요일,1,99,"본인과 가족(어린이, 청소년)",1,,99,"곱창, 국밥",37.49769182,126.8569352,결식아동,"본인과 가족(어린이, 청소년)","곱창, 국밥",술집,https://xn--o39akkz01az4ip7f4xzwoa.com//file/store/522/5537f9d0a10f45e2a0042b4ece072b61.jpg
494,구로구,어부식당,서울 구로구 구로동 212-8,지하115호 식당가,17,11-20시,공휴일 및 주말,1,3,,1,,1,,37.48367843,126.8954191,결식아동,동반 2인,,,https://xn--o39akkz01az4ip7f4xzwoa.com//file/store/494/8723ecee779a4e2a88bafeb8d4ccfc7f.jpg
101,구로구,육회지존(개봉역점),서울 구로구 남부순환로97길 20-7,201호 육회지존,17,16:30~익일 02:00,별도공지,1,99,가족 구성원 전부 가능,"01,02",,99,"육회비빔밥,연어장덮밥,외 모든 식사류",37.49391885,126.8588797,"결식아동,독거노인",가족 구성원 전부 가능,"육회비빔밥,연어장덮밥,외 모든 식사류",음식점,https://xn--o39akkz01az4ip7f4xzwoa.com//file/store/101/49b0fc75d3d54eb2bf8798d1eaeaa929.jpg
548,구로구,오로지라멘 구로지타워몰점,서울 구로구 디지털로26길 38,1층 113호,17,11:00 ~ 21:00,15:00~17:00,1,2,,"01,02",,99,"차슈동, 교자, 가라아게",37.4798477,126.8953185,"결식아동,독거노인",동반 1인,"차슈동, 교자, 가라아게",쇼핑몰,https://xn--o39akkz01az4ip7f4xzwoa.com//file/store/548/e53361f36eff4fa9a299c7b4caba1e89.jpeg
780,금천구,이레가구,서울 금천구 금하로23길 33,이레가구,18,10:00-20:00,매주 주일(일요일),3,1,,1,,99,책상/의자,37.45278001,126.9085988,결식아동,아이 본인만,책상/의자,,https://xn--o39akkz01az4ip7f4xzwoa.com//file/store/780/4cefc30994534fb0a00670dbc381284a.jpg
856,금천구,티엔티 스피치,서울 금천구 디지털로9길 46,306호,18,오전 10시 ~ 밤 10시,일요일,2,1,,1,,99,보이스 트레이닝 (예약 필수),37.48005881,126.8871007,결식아동,아이 본인만,보이스 트레이닝 (예약 필수),사무실 임대업체,https://xn--o39akkz01az4ip7f4xzwoa.com//file/store/856/3664ddfb439a43caa9eceda98df17ec9.jpg
850,금천구,더카페 이네스트점,서울 금천구 범안로 1155,1층 더카페 이네스트점,18,07:30~21:00,,1,2,,"01,02",,99,"음료1, 베이커리1",37.46681871,126.8900295,"결식아동,독거노인",동반 1인,"음료1, 베이커리1",카페,https://xn--o39akkz01az4ip7f4xzwoa.com//file/store/850/4d74ce9ba5534809b045116dd9ae879a.jpg
656,노원구,라라브레드,서울 노원구 공릉동 350-22,라라브레드1층,12,10:00~21:00,x,1,1,,1,,99,직원선택 2종,37.62493456,127.0777431,결식아동,아이 본인만,직원선택 2종,,https://xn--o39akkz01az4ip7f4xzwoa.com/images/header_logo.png
884,노원구,올가드림뷰티 공릉점,서울 노원구 공릉로34길 86,태릉해링턴플레이스 상가 2층 올가드림,12,오전10시~오후8시,"월요일,토요일,일요일",99,1,,"01,02",,99,"모공케어,여드름케어",37.62576537,127.081601,"결식아동,독거노인",아이 본인만,"모공케어,여드름케어",,https://xn--o39akkz01az4ip7f4xzwoa.com//file/store/884/bf4e45b6b2704e4388184e13eda0903e.jpg
924,노원구,헤스론,서울 노원구 덕릉로73길 28,상가동 209호,12,평일 :13시-20시30분 / 토요일 : 11시-18시,"매주 일요일,월요일 정기휴무",1,1,,1,,99,구움과자류,37.65247558,127.0719352,결식아동,아이 본인만,구움과자류,제과점,https://xn--o39akkz01az4ip7f4xzwoa.com/images/header_logo.png
475,노원구,달인보쌈,서울 노원구 동일로 1598,지층,12,11:30~21:30,15:00~17:00,1,1,,1,,99,마늘보쌈도시락,37.67105614,127.0563999,결식아동,아이 본인만,마늘보쌈도시락,음식점,https://xn--o39akkz01az4ip7f4xzwoa.com/images/header_logo.png
405,노원구,슈마스터태릉점,서울 노원구 동일로173가길 25,효영빌딩 102호,12,09~20,일요밀 휴무,3,2,,"01,02,99","산악구조대, 산림청,",1,,37.61941061,127.0732331,"결식아동,독거노인,산악구조대, 산림청,",동반 1인,,생활용품점,https://xn--o39akkz01az4ip7f4xzwoa.com//file/store/405/a054fb144a25454ca46ce01a7fd4666f.jpg
892,노원구,용인대금메달태권도,서울 노원구 동일로250길 18,상가동 2층 201호 용인대금메달태권,12,12:00 ~ 22:00,토. 일. 공휴일,2,1,,"01,99",사회적배려대상자,1,,37.68184246,127.0569993,"결식아동,사회적배려대상자",아이 본인만,,,https://xn--o39akkz01az4ip7f4xzwoa.com/images/header_logo.png
559,노원구,카툰공감 노원역점,서울 노원구 상계로 65,현성빌딩 지하1층 B04호,12,10:00-02:00,연중무휴,99,1,,"01,02",,1,,37.65635432,127.0622496,"결식아동,독거노인",아이 본인만,,카페,https://xn--o39akkz01az4ip7f4xzwoa.com//file/store/559/409b717763484fdf80115a8a01dc0453.png
1061,노원구,미소한가득,서울 노원구 석계로9길 10,1층 미소한가득,12,12:00~19:00,"일,월,화,공휴일",99,1,,"01,02",,99,보틀케이크 2개,37.61759699,127.0634673,"결식아동,독거노인",아이 본인만,보틀케이크 2개,,https://xn--o39akkz01az4ip7f4xzwoa.com//file/store/1061/bedfa2beaf6442418823fac34e015158.jpg
985,노원구,이리로,서울 노원구 하계동 208-19,1층이리로레스토랑,12,11시30분 ㅡ5시,없음,1,1,,1,,99,"돈가스,파스타",37.63887505,127.0702955,결식아동,아이 본인만,"돈가스,파스타",,https://xn--o39akkz01az4ip7f4xzwoa.com//file/store/985/c1689da9f9bc43c9953d4f2b12d88d75.jpg
329,노원구,카페거실,서울 노원구 화랑로47길 9,1층 카페거실,12,확인요망,,1,1,,"01,02",,99,음료메뉴 전부,37.61574588,127.0666312,"결식아동,독거노인",아이 본인만,음료메뉴 전부,카페,https://xn--o39akkz01az4ip7f4xzwoa.com//file/store/329/2dc2c98f464643679c3b743aa607401b.jpeg
359,도봉구,족발야시장창동역점,서울 도봉구 노해로69길 21-11,영진빌딩 106호,11,"평일오후4시-12시 주말,휴일오전11시~밤 12시",둘째넷째 화요일 휴무,1,3,,1,,2,,37.65310992,127.0500754,결식아동,동반 2인,,족발/보쌈집,https://xn--o39akkz01az4ip7f4xzwoa.com//file/store/359/42539d24a9fd48c0a51a654d3278e5a7.jpg
808,도봉구,워너비굿즈,서울 도봉구 도당로 76,405호,11,확인요망,"토,일",99,2,,99,마스크가 필요한 어린이,99,어린이 구리사마스크,37.66457204,127.0359669,마스크가 필요한 어린이,동반 1인,어린이 구리사마스크,,https://xn--o39akkz01az4ip7f4xzwoa.com//file/store/808/31e5440a253240889804e9dea0e5e05e.jpg
271,도봉구,써이포차나,서울 도봉구 도봉동 597-21,1층,11,평일 오전 11시30분 부터 오후 9시30분,오후2시30분 부터 오후 6시까지,1,2,,1,,2,,37.67783199,127.0435593,결식아동,동반 1인,,태국 음식점,https://xn--o39akkz01az4ip7f4xzwoa.com//file/store/271/e52e1c3ef5ea49b5bfe034db38718e63.jpg
100,도봉구,교촌치킨 쌍문역점,서울 도봉구 도봉로 505,1층 교촌치킨 쌍문역점,11,12:00 ~ 01:00,,1,3,,"01,02",,1,,37.65072874,127.0356034,"결식아동,독거노인",동반 2인,,후라이드/양념치킨집,https://xn--o39akkz01az4ip7f4xzwoa.com//file/store/100/321d018dca4a4abeb1945db4fbae3d0c.jpg
660,도봉구,메가커피 창동역점,서울 도봉구 마들로11가길 13,메가커피 창동역점,11,09:00~21:00,,1,99,첫방문시 맴버쉽쿠폰발급(아이 본인만),,,99,모든 음료,37.65290468,127.0492033,,첫방문시 맴버쉽쿠폰발급(아이 본인만),모든 음료,커피숍/커피 전문점,https://xn--o39akkz01az4ip7f4xzwoa.com/images/header_logo.png
509,도봉구,소스공작단,서울 도봉구 마들로11길 75,무중력 지대 달 1/6,11,11:00 - 21:00,일요일,1,2,,"01,02",,1,,37.65315868,127.0487467,"결식아동,독거노인",동반 1인,,,https://xn--o39akkz01az4ip7f4xzwoa.com//file/store/509/a352bf6776bd48bab1520767af7f6658.jpg
1052,도봉구,바우네나주곰탕,서울 도봉구 방학동 717-2,105호 나주곰탕,11,오전8시부터 오후9시,없음,1,1,,1,,2,,37.66728591,127.0448214,결식아동,아이 본인만,,,https://xn--o39akkz01az4ip7f4xzwoa.com/images/header_logo.png
1084,도봉구,청춘불닭발,서울 도봉구 창동 554-1,1층,11,16:00-02:00,일요일,1,2,,"01,02",,1,,37.63683067,127.0385739,"결식아동,독거노인",동반 1인,,,https://xn--o39akkz01az4ip7f4xzwoa.com/images/header_logo.png
827,도봉구,주크(모드베베),서울 도봉구 창동 703,2층 주크(모드베베),11,확인요망,,99,,,1,,2,,37.65304462,127.037945,결식아동,,,,https://xn--o39akkz01az4ip7f4xzwoa.com/images/header_logo.png
782,동대문구,예술의악당음악학원,서울 동대문구 이문로1길 16-3,2층,7,오후2시부터 7시,"토,일,공휴일",2,1,,"01,02,99",기초생활수급자,99,피아노 교습비 90% 감면,37.58910135,127.0531211,"결식아동,독거노인,기초생활수급자 ",아이 본인만,피아노 교습비 9% 감면,음악학원,https://xn--o39akkz01az4ip7f4xzwoa.com//file/store/782/f5e824b0dd7348f99f2ad08e4d4825e0.jpeg
141,동대문구,사미커피,서울 동대문구 장한로14길 70,1층 사미커피,7,09:30~23:59,"평일 17:30~20:00, 주말X, 공휴일휴무",1,2,,"01,02",,1,,37.56512557,127.0716423,"결식아동,독거노인",동반 1인,,커피숍/커피 전문점,https://xn--o39akkz01az4ip7f4xzwoa.com//file/store/141/ea949011a59c455a808bdac2f98a4b07.jpg
419,동대문구,유끼노하나,서울 동대문구 장한로36길 10,1층 유끼노하나,7,"낮12시~익일 새벽 1시(금,토 익일 새벽 2시)",오후 4시20분~6시 브레이크타임,1,1,,1,,1,,37.57742109,127.0728255,결식아동,아이 본인만,,,https://xn--o39akkz01az4ip7f4xzwoa.com//file/store/419/ac4cc640b9ea4725bec1257568c238c7.jpg
196,동대문구,봉수아피자 답십리점,서울 동대문구 전농동 46-71,1층,7,오전11시부터 오후11시까지,없음,1,1,,1,,99,콤비네이션XL 불고기XL 하와이안XL,37.57880066,127.0584512,결식아동,아이 본인만,콤비네이션XL 불고기XL 하와이안XL,피자 전문점,https://xn--o39akkz01az4ip7f4xzwoa.com//file/store/196/9a38891ca59d44fb9c8a747000b9075e.jpg
588,동대문구,너나들이 만화카페,서울 동대문구 회기동 60-71,지하 1층 너나들이,7,12:00~22:00,연중무휴,1,1,,"01,02",,1,,37.59232195,127.0508587,"결식아동,독거노인",아이 본인만,,만화 카페,https://xn--o39akkz01az4ip7f4xzwoa.com//file/store/588/2f525cfe58534c8d8e0b1882543f40f1.jpeg
468,동대문구,정재광 복싱 클럽,서울 동대문구 회기로 152,3층 정재광 복싱클럽,7,오전 12시 부터  오후 10시 까지,법정 공휴일 모두 쉽니다.,2,1,,1,,1,,37.59106832,127.0531009,결식아동,아이 본인만,,복싱장,https://xn--o39akkz01az4ip7f4xzwoa.com//file/store/468/f8b62cbfaecc47459f08ec33c9aee523.jpg
904,동대문구,이문동辛냉면,서울 동대문구 휘경로 6-8,1층 우측,7,오전 11시~오후 7시,매주 월요일 휴무,1,1,,1,,99,"냉면, 만두",37.59580646,127.0605774,결식아동,아이 본인만,"냉면, 만두",국수 전문점,https://xn--o39akkz01az4ip7f4xzwoa.com//file/store/904/9dd14acbff6b4517852d2368d2df18e2.jpg
650,동작구,봉식이떡볶이,서울 동작구 국사봉1길 70,1층 봉식이떡볶이,20,오전 11시30분~오후9시30분,월요일,1,1,,1,,1,,37.49827945,126.9313244,결식아동,아이 본인만,,,https://xn--o39akkz01az4ip7f4xzwoa.com//file/store/650/b6e894d4a41c4423aabe19766cd39831.jpg
181,동작구,월경상점,서울 동작구 노량진로 10,스페이스살림 1층 스타트업매장 2호,20,13:00 - 20:00 (요일별 상이),"일,월 휴무",3,2,,,,99,누르 생리대,37.51239334,126.9272725,,동반 1인,누르 생리대,전자상거래 서비스,https://xn--o39akkz01az4ip7f4xzwoa.com//file/store/181/2003fb4a89774107960153b6a46c74dc.jpg
239,동작구,육대장이수역점,서울 동작구 사당동 89-6,1층 육대장,20,오전11시~오후9시,연중무휴,1,2,,"01,99",독거노인,99,"육개장,설렁탕",37.48876924,126.9813284,"결식아동,독거노인",동반 1인,"육개장,설렁탕",음식점,https://xn--o39akkz01az4ip7f4xzwoa.com//file/store/239/239eab3530b942a4b7b4fc9db5f97f4e.jpg
544,동작구,오태식해바라기치킨 사당153점,서울 동작구 사당로16가길 42,오태식해바라기치킨,20,오전 11시 ~ 새벽 1시,주일,1,1,,1,,1,,37.48357948,126.971246,결식아동,아이 본인만,,,https://xn--o39akkz01az4ip7f4xzwoa.com//file/store/544/38e8efc563364dc4803f2b7b6eca23e6.jpg
910,동작구,브레댄코,서울 동작구 상도로 지하 272,지하2층 Bread.co 브레댄코,20,07:00-22:00,,1,2,,1,,1,,37.50320805,126.9477004,결식아동,동반 1인,,,https://xn--o39akkz01az4ip7f4xzwoa.com/images/header_logo.png
929,마포구,커피프릭,서울 마포구 굴레방로7길 22,"지상 1,2층",4,09:00~22:00,"구정, 추석 휴무",1,1,,"01,02,99",경찰,1,,37.55635049,126.9542749,"결식아동,독거노인,경찰",아이 본인만,,,https://xn--o39akkz01az4ip7f4xzwoa.com//file/store/929/d1cc83fdf141414d9bf2622fc90824bf.jpg
941,마포구,피에스타7커피,서울 마포구 동교동 164-18,피에스타7커피,4,"평일 : 오전 8시~23시,주말 : 오전 9시~23시",연중무휴,1,1,,"01,02",,1,,37.55596451,126.9239017,"결식아동,독거노인",아이 본인만,,카페,https://xn--o39akkz01az4ip7f4xzwoa.com//file/store/941/a1a93b4f02c4450ba7e8ff54868a2213.jpg
623,마포구,성산베스트플러스학원,서울 마포구 동교로 67,"2층 (망원동,삼운빌딩)",4,1200~1900,"토,일요일",2,2,,"01,02",,1,,37.5537428,126.9096697,"결식아동,독거노인",동반 1인,,사립학교,https://xn--o39akkz01az4ip7f4xzwoa.com//file/store/623/108abdd704d14d638d42dbf40279a0ea.jpg
1077,마포구,sobit gold station,서울 마포구 마포대로 53,1층 소빛골드스테이션,4,09:00~20:00,없음,1,1,,1,,99,라면세트와 케잌,37.54143216,126.9470541,결식아동,아이 본인만,라면세트와 케잌,,https://xn--o39akkz01az4ip7f4xzwoa.com//file/store/1077/2687a523de6b437494fb12993de9c574.jpg
763,마포구,달콤헤어,서울 마포구 망원동 424-9,102호,4,10시~20시,없어요(예약하면 됩니다),3,1,,"01,02",,1,,37.55812751,126.9041936,"결식아동,독거노인",아이 본인만,,미용실,https://xn--o39akkz01az4ip7f4xzwoa.com//file/store/763/c324f8c4836d4914af0e666054c31854.jpg
898,마포구,동경규동상암,서울 마포구 매봉산로2길 68,1층 동경규동,4,11:00 ~ 20:00,"15:00~17:00 휴무시간 / 공휴일, 일요일 휴무",1,3,,"01,02",,1,,37.57637326,126.8961494,"결식아동,독거노인",동반 2인,,일본 음식점,https://xn--o39akkz01az4ip7f4xzwoa.com//file/store/898/ad31505e22ed45b58f0ebc4ffdc63703.jpg
537,마포구,깊이,서울 마포구 서교동 384-14,1층 깊이커피,4,매일 10:00 ~ 24:00,없음,1,2,,"01,02,99",경찰 공무원 소방공무원 20% 할인,1,,37.55223793,126.9134894,"결식아동,독거노인,경찰 공무원 소방공무원 2% 할인 ",동반 1인,,,https://xn--o39akkz01az4ip7f4xzwoa.com//file/store/537/784e703e29ee4353b2dae6d9842ab6c2.jpg
575,마포구,슈츄안,서울 마포구 서교동 405-17,2층,4,오전11~익일 오전6시,연중무휴,1,99,"본인+동반1인, 복지카드+학생증지참","01,99",초등~고등학교1학년까지만(학생증확인),1,,37.5503889,126.9209387,"결식아동,초등~고등학교1학년까지만(학생증확인)","본인+동반1인, 복지카드+학생증지참",,,https://xn--o39akkz01az4ip7f4xzwoa.com//file/store/575/3d6b4d4bdb5040619a417644e0352b95.jpeg
750,마포구,네임리스커피,서울 마포구 성미산로13길 89,지층 좌측호,4,평일 10~20시 토요일 11~20시 일요일 11~18,매주 수요일,1,2,,1,,2,,37.56481518,126.9160515,결식아동,동반 1인,,커피숍/커피 전문점,https://xn--o39akkz01az4ip7f4xzwoa.com//file/store/750/2a073c6cc52d4c9d81b3c4b7eb3fd048.jpg
360,마포구,블루밍부케,서울 마포구 와우산로 161,1층 꽃집,4,12:00~19:00,"월,화 휴무",99,2,,"01,02",,99,오늘의꽃다발,37.55536391,126.930336,"결식아동,독거노인",동반 1인,오늘의꽃다발,,https://xn--o39akkz01az4ip7f4xzwoa.com//file/store/360/b1ec5c2de20e449996512c84d6ec850a.jpeg
30,마포구,진짜파스타,서울 마포구 와우산로 64,전원빌딩 2층 진짜파스타,4,화~일 11:30 ~ 21:00,15:30~16:30 월요일 휴무,1,2,,"01,02",,99,전메뉴 2만원 이내 제공,37.55021997,126.9232713,"결식아동,독거노인",동반 1인,전메뉴 2만원 이내 제공,이탈리아 음식점,https://xn--o39akkz01az4ip7f4xzwoa.com/images/header_logo.png
415,마포구,코코아트리,서울 마포구 와우산로11길 9-10,2층 카페,4,12:00~20:00,,1,,,1,,1,,37.54847247,126.9222762,결식아동,,,카페,https://xn--o39akkz01az4ip7f4xzwoa.com//file/store/415/969fd56faacf4a60bc4ec96276109742.jpg
1085,마포구,로샤뷰티,서울 마포구 와우산로29길 4-24,101호 로샤뷰티,4,10:30-8:00,매주 달라짐,99,1,,"01,02",,99,헤어 커트,37.5549238,126.9296221,"결식아동,독거노인",아이 본인만,헤어 커트,,https://xn--o39akkz01az4ip7f4xzwoa.com//file/store/1085/6d61b4cb08084adbb718ef39ea90cf6e.jpeg
56,마포구,두두리두팡,서울 마포구 월드컵로23길 18,2층 201호 두두리두팡,4,매주 금토일 오후12시~18시(조기품절시 조기마감),매주 월화수목 휴무,1,1,,1,,99,1메뉴(케이크/제과 모두포함) 1음료,37.55709127,126.9078092,결식아동,아이 본인만,1메뉴(케이크/제과 모두포함) 1음료,제과점,https://xn--o39akkz01az4ip7f4xzwoa.com//file/store/56/3421c2927ca64547bd0c5bb958d378d8.jpeg
521,마포구,블리스버거상암점,서울 마포구 월드컵북로 402,"kgit센터 1층 117,118호",4,평일 11시~9시,,1,2,,1,,1,,37.58010775,126.8889823,결식아동,동반 1인,,햄버거 전문점,https://xn--o39akkz01az4ip7f4xzwoa.com//file/store/521/01708daba76e4b26bbc5c83587a0cf05.jpeg
642,마포구,모데나,서울 마포구 월드컵북로 402,kgit센터 지하1층 푸드코트 109,4,11:30~20:00,토일휴무,1,1,,"01,02",,1,,37.58010775,126.8889823,"결식아동,독거노인",아이 본인만,,,https://xn--o39akkz01az4ip7f4xzwoa.com/images/header_logo.png
749,마포구,피트니스플랜비,서울 마포구 월드컵북로54길 11,전자회관 B1 피트니스플랜비,4,오전10~오후9시,공휴일 휴무,99,99,청소년,,,2,,37.58088763,126.8883895,,청소년,,체육관,https://xn--o39akkz01az4ip7f4xzwoa.com//file/store/749/846091a1ffaa4f0eb0cc7bd95413ab07.jpg
448,서대문구,아하하일본어,서울 서대문구 가재울미래로 2,218,14,09:00 ~ 18:00,,2,1,,"01,02",,1,,37.57442036,126.9178974,"결식아동,독거노인",아이 본인만,,,https://xn--o39akkz01az4ip7f4xzwoa.com/images/header_logo.png
671,서대문구,줄리앙와플and커피,서울 서대문구 거북골로 150,1층,14,오전10시새벽1시,3시~4시,1,1,,"01,02",,1,,37.57555558,126.9131872,"결식아동,독거노인",아이 본인만,,카페,https://xn--o39akkz01az4ip7f4xzwoa.com//file/store/671/049e4ff3421f4ae09bc84704a4d78a05.jpg
15,서대문구,아이오안경원,서울 서대문구 신촌로 1,1층 EYE OH,14,10:00~21:00,없음,99,1,,1,,2,,37.55887396,126.9273951,결식아동,아이 본인만,,,https://xn--o39akkz01az4ip7f4xzwoa.com/images/header_logo.png
915,서대문구,준에이치(JUNH),서울 서대문구 연희동 130-13,1층 JUNH,14,11:00 ~ 18:00,월요일,2,2,,"01,99",저소득층 복지누리카드소지자,99,원데이클래스,37.56735783,126.9288694,"결식아동,저소득층 복지누리카드소지자",동반 1인,원데이클래스,사진사,https://xn--o39akkz01az4ip7f4xzwoa.com//file/store/915/00d4afda7f554cccaf4b552e5bea14c0.jpeg
875,서대문구,황카페,서울 서대문구 연희로 89-8,1층,14,오전11시~밤9시,매주 일요일,1,1,,1,,99,"로제떡볶이, 음료",37.56643453,126.929991,결식아동,아이 본인만,"로제떡볶이, 음료",카페,https://xn--o39akkz01az4ip7f4xzwoa.com//file/store/875/7b92c5e8e8c848a8be79a18556a2dd32.png
529,서대문구,고스트요거트 이대점,서울 서대문구 이화여대길 52-15,1층 고스트요거트,14,월-금 11-19/토 12-19,"14-15휴게시간/첫째주 토요일,일요일 및 공휴일 휴무",1,2,,1,,99,요거트+콤비네이션 토핑,37.55933427,126.9448747,결식아동,동반 1인,요거트+콤비네이션 토핑,,https://xn--o39akkz01az4ip7f4xzwoa.com//file/store/529/85bc9c6a89c1424090cbe1c7cef0ba77.jpeg
63,서대문구,싸움의고수,서울 서대문구 홍은동 48-106,1층,14,11:00-22:00,없음,1,2,,1,,1,,37.59387089,126.9457978,결식아동,동반 1인,,,https://xn--o39akkz01az4ip7f4xzwoa.com//file/store/63/6e99f033b34f4b3d86ab1880289cbf1e.jpg
1013,서초구,구슬함박 서초점,서울 서초구 강남대로 321,지하 116호,22,오전11시-밤12시,매주월요일 정기휴무,1,99,만19세 미만 청소년 및 아동,1,,1,,37.49155734,127.0299709,결식아동,만19세 미만 청소년 및 아동,,,https://xn--o39akkz01az4ip7f4xzwoa.com/images/header_logo.png
819,서초구,해물과차돌박이,서울 서초구 강남대로12길 50,1층,22,11시30~14시,14시~17시,1,2,,1,,99,점심단품메뉴,37.47081116,127.0415619,결식아동,동반 1인,점심단품메뉴,음식점,https://xn--o39akkz01az4ip7f4xzwoa.com//file/store/819/de9bbad015514745b4d6421bb6d47745.jpg
44,서초구,장금수부대찌개양재점,서울 서초구 강남대로30길 73-3,장금수부대찌개양재점,22,오전11시 오후9시30,일요일  구정 신정  추석  전일 당일,1,2,,"01,02",,99,부대찌개,37.48287579,127.0409967,"결식아동,독거노인",동반 1인,부대찌개,,https://xn--o39akkz01az4ip7f4xzwoa.com//file/store/44/9161703f1fb34504bd46397994d086b2.jpg
169,서초구,돈가스신사,서울 서초구 나루터로15길 6,신사제2빌딩 101호 돈가스신사,22,평일 11:00-21:00 토요일 11:00-15:00,"일요일, 국경일",1,1,,1,,1,,37.51618262,127.0186323,결식아동,아이 본인만,,음식점,https://xn--o39akkz01az4ip7f4xzwoa.com/images/header_logo.png
1053,서초구,림돈(돈가스),서울 서초구 매헌로 16,하이브랜드 리빙관 지하1층  림돈,22,오전11시~오후8시,매주 일요일,1,1,,1,,99,돈가스,37.46246735,127.0369479,결식아동,아이 본인만,돈가스,음식점,https://xn--o39akkz01az4ip7f4xzwoa.com//file/store/1053/9fb724c9e62f44049c9a386ac7169cad.jpg
1069,서초구,아이언그릴,서울 서초구 매헌로 16,하이브랜드 지하1층 푸드코트내 113,22,09~20,일요일휴무 14~16시 브레이크타임,1,1,,"01,02",,1,,37.46246735,127.0369479,"결식아동,독거노인",아이 본인만,,,https://xn--o39akkz01az4ip7f4xzwoa.com//file/store/1069/ec98a418785d4a44b1f57387329bff6c.jpg
556,서초구,자판기가게,서울 서초구 방배천로2안길 96,1층 101호 자판기가게,22,24시간,없음,1,2,,1,,1,,37.4812784,126.984171,결식아동,동반 1인,,,https://xn--o39akkz01az4ip7f4xzwoa.com//file/store/556/0884429c403a4b1fbc14836a57146e37.jpg
413,서초구,원더스잉글리시아카데미,서울 서초구 서래로 17,럭스빌딩 6층,22,월-금 11:00 - 20:00 토요일 10:00 - 14:30,일요일,2,,,,,,,37.49666677,126.9980048,,,,,https://xn--o39akkz01az4ip7f4xzwoa.com/images/header_logo.png
530,서초구,고스트요거트 교대본점,서울 서초구 서초중앙로20길 37,1층 고스트요거트,22,월-금 10-19:30/토 11-19,"14-15휴게시간/첫째주토요일, 일요일 및 공휴일휴무",1,2,,1,,99,요거트+콤비네이션 토핑,37.49254068,127.0162371,결식아동,동반 1인,요거트+콤비네이션 토핑,음식점,https://xn--o39akkz01az4ip7f4xzwoa.com//file/store/530/ed333a82c44340a3982a2500c30f79c1.jpeg
612,성동구,만석돼지갈비,서울 성동구 고산자로12길 2,만석돼지갈비,5,11:30 ~ 22:00,없음,1,2,,1,,99,"정심식사 2인분,저녁 삼겹또는갈비 2",37.56018581,127.0347489,결식아동,동반 1인,"정심식사 2인분,저녁 삼겹또는갈비 2",음식점,https://xn--o39akkz01az4ip7f4xzwoa.com//file/store/612/063339493bd149b3b2d519cd8172e2cf.jpg
1011,성동구,카페 드 모나코,서울 성동구 고산자로2길 65,카페 드 모나코,5,오전9시 ~ 오후 10시,연중무휴,1,1,,"01,02",,1,,37.55619853,127.0388365,"결식아동,독거노인",아이 본인만,,카페,https://xn--o39akkz01az4ip7f4xzwoa.com//file/store/1011/e04d13637bf74bf780d7db5ccb36775b.jpeg
83,성동구,투썸플레이스  금호하이리버점,서울 성동구 금호로 105,투썸플레이스  금호하이리버점,5,8~23시,없음,99,1,,1,,99,샌드위치류. 브레드류. 음료류. 케익,37.55237636,127.0245531,결식아동,아이 본인만,샌드위치류. 브레드류. 음료류. 케익,카페,https://xn--o39akkz01az4ip7f4xzwoa.com//file/store/83/1d037033076841ceb3a9501996a82579.jpg
696,성동구,돈카츠마켙왕십리점,서울 성동구 무학로 33,상가152동 비1층 비106호,5,10:00~21:00,매주 월요일,1,2,,1,,1,,37.56916416,127.0263479,결식아동,동반 1인,,음식점/카페,https://xn--o39akkz01az4ip7f4xzwoa.com//file/store/696/6e9d0afe4333471cbdc849f015a6da60.jpg
658,성동구,쑤쑤타이,서울 성동구 상원1길 12,1층 쑤쑤타이,5,확인요망,일요일,1,1,,1,,,,37.54497088,127.0490942,결식아동,아이 본인만,,태국 음식점,https://xn--o39akkz01az4ip7f4xzwoa.com/images/header_logo.png
848,성동구,루트비커피 성수점,서울 성동구 아차산로15길 10,성원상떼뷰오피스텔 107호 루트비커피,5,07:00 ~ 18:30,일요일 (임시휴무있음),1,1,,"01,02,99","소방관 1인 무료, 추가인원50%할인",1,,37.54369624,127.0626068,"결식아동,독거노인,소방관 1인 무료, 추가인원5%할인",아이 본인만,,커피숍/커피 전문점,https://xn--o39akkz01az4ip7f4xzwoa.com//file/store/848/dda3274034a442a8b01290eca7487dbe.jpg
619,성동구,어반그라운드헤어 상왕십리점,서울 성동구 왕십리로 353,vip빌딩 2층,5,11:00 ~ 21:00,없음,99,1,,1,,99,쥬니어 커트,37.56363389,127.0306507,결식아동,아이 본인만,쥬니어 커트,미용실,https://xn--o39akkz01az4ip7f4xzwoa.com//file/store/619/5e0c3cbe2d2f4f108b9a49a59cc7f6a2.jpg
988,성동구,더짜글왕십리점,서울 성동구 왕십리로21가길 1,1층,5,11:00~23:00,없음,1,2,,"01,02",,99,"짜글이1인분,짜글이2인분",37.56105242,127.0330712,"결식아동,독거노인",동반 1인,"짜글이1인분,짜글이2인분",,https://xn--o39akkz01az4ip7f4xzwoa.com//file/store/988/3685ddd532e44540924f5cd346901137.jpg
429,성북구,주식회사 늘,서울 성북구 고려대로24가길 13-2,Golden House 1층,9,PM 5:00 ~ AM 1:00,정기휴무 없음.,1,1,,1,,99,식사류 모든 품목,37.58533768,127.0303206,결식아동,아이 본인만,식사류 모든 품목,,https://xn--o39akkz01az4ip7f4xzwoa.com//file/store/429/5c409bd0de594bb7bdffc794b8ec10d6.jpg
1079,성북구,대연생고깃간,서울 성북구 돌곶이로22나길 29,1층 대연생고깃간,9,오전9시30분~ 저녁9시30분,,1,1,,1,,99,모든 고기 20.000원 상당,37.60920605,127.0611484,결식아동,아이 본인만,모든 고기 2.원 상당,음식점,https://xn--o39akkz01az4ip7f4xzwoa.com/images/header_logo.png
346,성북구,대한푸드(사계절치킨),서울 성북구 동소문로24길 31,지층 사계절치킨,9,오전10시부터 새벽2시까지,없음,1,2,,"01,02",,99,치킨 세가지 후라이드간장 양념,37.59226157,127.0189355,"결식아동,독거노인",동반 1인,치킨 세가지 후라이드간장 양념,도매업체,https://xn--o39akkz01az4ip7f4xzwoa.com//file/store/346/d77e042fec8546d2bc6c54932e6beaaa.jpeg
298,성북구,나이스 샌드위치,서울 성북구 보문로34길 72-4,1층,9,오전 10시 30분~ 밤 12시,매주 월요일,1,99,아이 본인과 친구들 사주고 싶을때,"01,02",,99,모든 품목이고 간식도 챙겨 보낼께요,37.59097109,127.0193769,"결식아동,독거노인",아이 본인과 친구들 사주고 싶을때,모든 품목이고 간식도 챙겨 보낼께요,카페,https://xn--o39akkz01az4ip7f4xzwoa.com//file/store/298/4abba39406ac41e8acc9b9f227a7931b.jpg
240,성북구,하오하오츠,서울 성북구 서경로 37,1층,9,11:00 ~ 21:30 (마지막 주문 20:30),"평일 15:00 ~ 17:00 신정,명절당일",1,2,,"01,02,99",군인 경찰,1,,37.60712437,127.0154451,"결식아동,독거노인,군인 경찰",동반 1인,,중국 음식점,https://xn--o39akkz01az4ip7f4xzwoa.com//file/store/240/c96683e00f1245aa8b4fcde17f40a147.png
147,성북구,72420미아사거리점,서울 성북구 숭인로 50,근린상가2동 2103호(108동상가),9,11:00~21:00,15:00~16:30,1,2,,,,99,쌀국수 및 볶음밥,37.61198667,127.028784,,동반 1인,쌀국수 및 볶음밥,,https://xn--o39akkz01az4ip7f4xzwoa.com//file/store/147/2e5316bb883a4f809d5ec554231c7e2b.jpeg
344,성북구,닥터브이 코인노래연습장,서울 성북구 안암동5가 104-30,지하1층,9,9시부터 새벽3시,없습니다.,99,1,,1,,99,"의류,신발사업도하고있습니다 신발,옷",37.58396192,127.029729,결식아동,아이 본인만,"의류,신발사업도하고있습니다 신발,옷",노래방,https://xn--o39akkz01az4ip7f4xzwoa.com/images/header_logo.png
257,성북구,샤롱샤롱,서울 성북구 장월로1길 111,1층,9,화수목금 12:30~7시(제품 소진시 조기마감),토일월,1,1,,"01,99",기초수급가정아동,2,,37.604307,127.0429812,"결식아동,기초수급가정아동",아이 본인만,,,https://xn--o39akkz01az4ip7f4xzwoa.com//file/store/257/8f3d081ba4e048a7973244e1f71e5cfe.jpg
506,성북구,서민스시,서울 성북구 장위동 66-323,1층,9,오전11시30분 ~ 오후9시,"오후2시~오후5시 재료준비시간, 마지막주문 8시30분",1,2,,1,,99,"점심메뉴 2인 지급 26,000원상당",37.60957472,127.0521737,결식아동,동반 1인,"점심메뉴 2인 지급 26,원상당",음식점,https://xn--o39akkz01az4ip7f4xzwoa.com//file/store/506/2219a20430c44028b43a8b1cf72f05ad.png
501,성북구,쌀똑핫도그 월곡직영점,서울 성북구 하월곡동 227,상가1층 쌀똑핫도그,9,11:00-23:00,연중무휴,1,2,,"01,02",,1,,37.60327757,127.0421197,"결식아동,독거노인",동반 1인,,음식점,https://xn--o39akkz01az4ip7f4xzwoa.com//file/store/501/c308f35b4d2d445cb2cd648b7a1af9c5.jpg
129,성북구,발효명가기와집갈비,서울 성북구 화랑로25길 18,기와집갈비,9,오전11~오후10,매주 일요일,1,2,,"01,99",독거노인,99,식사류,37.60945421,127.0522897,"결식아동,독거노인",동반 1인,식사류,갈비 전문 음식점,https://xn--o39akkz01az4ip7f4xzwoa.com/images/header_logo.png
183,송파구,필라멘,서울 송파구 가락동 80,102동119호 필라멘,24,11-14.30  16:30-21:00,15:00-16:30,1,1,,1,,1,,37.49506449,127.1204362,결식아동,아이 본인만,,,https://xn--o39akkz01az4ip7f4xzwoa.com//file/store/183/a9dc7b6ad9c144dbb894b651e8cb3ebd.jpg
118,송파구,카페시아아틀리에,서울 송파구 문정로1길 34,1층 카페시아 아틀리에,24,10:00 ~ 20:00,없음,1,1,,"01,02",,1,,37.48916353,127.1236663,"결식아동,독거노인",아이 본인만,,카페,https://xn--o39akkz01az4ip7f4xzwoa.com//file/store/118/3e379ce4b5734023aead1c557ac0d4fd.jpg
620,송파구,달떡볶이 잠실점,서울 송파구 삼학사로12길 14,106호,24,10:00 ~ 22:00,없음,1,2,,1,,99,"초승달세트(떡볶이,순대,튀김,음료)",37.50154387,127.0985952,결식아동,동반 1인,"초승달세트(떡볶이,순대,튀김,음료)",,https://xn--o39akkz01az4ip7f4xzwoa.com/images/header_logo.png
321,송파구,입분식가정집,서울 송파구 송파동 51-4,2층 입분식가정집,24,11:30~21시,없음,1,3,,1,,2,,37.50999855,127.1104017,결식아동,동반 2인,,떡볶이 전문점,https://xn--o39akkz01az4ip7f4xzwoa.com//file/store/321/75c48fd955584703954189f973b54312.jpg
507,송파구,천향마라탕잠실점,서울 송파구 송파동 51-8,101호,24,10:00 -22:00,연중무휴,1,3,,"01,02,99",65세이상 어르신,99,마라탕,37.50988915,127.1103261,"결식아동,독거노인,65세이상 어르신",동반 2인,마라탕,음식점,https://xn--o39akkz01az4ip7f4xzwoa.com//file/store/507/133e9269a24b4fa593821747822e039d.jpg
418,송파구,헤어매직,서울 송파구 신천동 7,장미상가 A동 314호,24,10:00 ~ 20:00,명절 외 연중무휴,3,1,,1,,99,컷트 무료,37.51888493,127.0992805,결식아동,아이 본인만,컷트 무료,미용실,https://xn--o39akkz01az4ip7f4xzwoa.com//file/store/418/13e54586d40847d8a72e47c21efcbd64.jpg
818,송파구,1974,서울 송파구 오금동 11,현대백조아파트상가 a동 102호,24,오후 3시~새벽 1시,없음,1,2,,1,,2,,37.50939106,127.1292595,결식아동,동반 1인,,,https://xn--o39akkz01az4ip7f4xzwoa.com//file/store/818/ca2df34d8e4d412cae3e41ff1de87d38.jpg
655,송파구,라라브레드 잠실점,서울 송파구 오금로16길 4,라라브레드 1층,24,10:00 ~ 21:00,x,1,1,,1,,99,직원선택 2종,37.51113268,127.1091047,결식아동,아이 본인만,직원선택 2종,카페,https://xn--o39akkz01az4ip7f4xzwoa.com/images/header_logo.png
992,송파구,티테리아 (TEA TERIA),서울 송파구 올림픽로35가길 10,상가동 103호,24,오전8:00 ~ 오후7:00,주말 및 공휴일 휴무,1,1,,"01,02",,99,"음료 1잔 (4,000원 기준)",37.51691299,127.1022358,"결식아동,독거노인",아이 본인만,"음료 1잔 (4,원 기준)",카페,https://xn--o39akkz01az4ip7f4xzwoa.com//file/store/992/4e482a5485204897aee56fe0d74a4a87.jpg
598,송파구,북경짜장 위례신도시점,서울 송파구 위례광장로 120,1층 북경짜장,24,10:00~20:30,없음,1,1,,"01,02,99",정말 돈없고 배고픈 사람들,99,"짜장, 짬뽕, 볶음밥,1인탕수육등등",37.47501456,127.1416298,"결식아동,독거노인,정말 돈없고 배고픈 사람들",아이 본인만,"짜장, 짬뽕, 볶음밥,1인탕수육등등",,https://xn--o39akkz01az4ip7f4xzwoa.com//file/store/598/bd028e3deb7d4cc9abb476545e993dff.jpg
262,양천구,서서울,서울 양천구 남부순환로58길 33,1층 105호 서서울,15,오전9시~저녁10시,연중무휴,1,2,,"01,02",,2,,37.52917527,126.8313073,"결식아동,독거노인",동반 1인,,,https://xn--o39akkz01az4ip7f4xzwoa.com//file/store/262/64871b9776194c8bb795d4b526ee6ed2.jpg
85,양천구,한옥안동국시,서울 양천구 목동서로 213,B1,15,확인요망,일요일,1,,,,,,,37.52801699,126.8706157,,,,국수 전문점,https://xn--o39akkz01az4ip7f4xzwoa.com/images/header_logo.png
260,양천구,성찬푸드,서울 양천구 신월동 122-15,"1층 성찬푸드/족발,냉면,짜글이",15,오전11시30분~익일 02시 까지,없음,1,99,그날 상황에 따라 달라질수 있습니다,"01,02",,99,냉면류,37.53011521,126.8355991,"결식아동,독거노인",그날 상황에 따라 달라질수 있습니다,냉면류,,https://xn--o39akkz01az4ip7f4xzwoa.com//file/store/260/99a2c229982840cc973ac27f2c368018.jpg
1065,양천구,유캔두잇 신월점,서울 양천구 신월동 22-19,104호 유캔두잇신월점,15,오전10시~밤10시,연중무휴,1,1,,"01,02",,1,,37.54073459,126.8333616,"결식아동,독거노인",아이 본인만,,,https://xn--o39akkz01az4ip7f4xzwoa.com/images/header_logo.png
184,양천구,피자베이본점,서울 양천구 신월로 351,1층 피자베이,15,오전 11시부터 밤 12시까지,,1,99,피자 한판으로 제공,"01,02,99",식사를 잘못하는 불우한이웃!!,99,오늘의요일피자 와 음료수 증정,37.52216881,126.8600582,"결식아동,독거노인,식사를 잘못하는 불우한이웃!!",피자 한판으로 제공,오늘의요일피자 와 음료수 증정,,https://xn--o39akkz01az4ip7f4xzwoa.com//file/store/184/03d398ee65d34784af8841b265dd21ca.jpg
546,양천구,푸라닭신정1동점,서울 양천구 신월로36길 3-1,1층,15,12시~24시,연중무휴,1,1,,1,,99,푸라닭치킨,37.5212686,126.8584534,결식아동,아이 본인만,푸라닭치킨,치킨 전문점,https://xn--o39akkz01az4ip7f4xzwoa.com/images/header_logo.png
264,양천구,엘리트태권도,서울 양천구 신정이펜2로 22,601호 엘리트태권도장,15,13시30분~21시,"토,일,공휴일",2,1,,1,,1,,37.51289569,126.8325647,결식아동,아이 본인만,,,https://xn--o39akkz01az4ip7f4xzwoa.com//file/store/264/9825c057da1b49fea9fcc6c4a48f4da1.jpg
189,영등포구,당산돈,서울 영등포구 당산로35길 6,1층,19,11:00 ~ 22:00,"공휴일, 일요일 (코로나로 인해 토요일 당분간 휴무)",1,1,,1,,99,김치찌개,37.52898745,126.8971809,결식아동,아이 본인만,김치찌개,,https://xn--o39akkz01az4ip7f4xzwoa.com//file/store/189/dd9d590663264ce2a5cad7d89128a451.jpeg
412,영등포구,쿠이대,서울 영등포구 도림동 232-2,1층식당,19,11시~~9시,3시~5시주말휴무,1,1,,1,,2,,37.50715635,126.898142,결식아동,아이 본인만,,서점,https://xn--o39akkz01az4ip7f4xzwoa.com/images/header_logo.png
58,영등포구,홍대돈부리 영등포점,서울 영등포구 도신로29사길 3,모두의주방 5호 홍대돈부리,19,09:00-20:50,연중무휴,1,2,,1,,99,"가츠동, 믹스가츠동, 가라아게동, 규",37.51018327,126.9049457,결식아동,동반 1인,"가츠동, 믹스가츠동, 가라아게동, 규",음식점,https://xn--o39akkz01az4ip7f4xzwoa.com//file/store/58/fba6dd9967974ac8839c7115512ab3d6.jpg
59,영등포구,까사피에스타 영등포점,서울 영등포구 도신로29사길 3,모두의주방 1호 까사피에스타,19,09:00-20:50,"연중무휴, 16:00-17:00 쉬는시간",1,2,,"01,02",,2,,37.51018327,126.9049457,"결식아동,독거노인",동반 1인,,,https://xn--o39akkz01az4ip7f4xzwoa.com//file/store/59/b9934804b18545b8a8d4606108de6093.jpg
268,영등포구,직화삼겹직구삼 대림신길점,서울 영등포구 디지털로66길 8,1층 직구삼,19,11:00에서 새벽1시,연중무휴,1,1,,"01,02",,1,,37.49252558,126.9045513,"결식아동,독거노인",아이 본인만,,,https://xn--o39akkz01az4ip7f4xzwoa.com//file/store/268/47b8938259314ff49d71bf314c43a240.jpg
461,영등포구,브로스키친,서울 영등포구 선유동1로 6-4,1층 브로스키친,19,11:00 ~ 25:00,없음,1,99,어려운아이들과 어려운 가정에게,1,,1,,37.52246613,126.891781,결식아동,어려운아이들과 어려운 가정에게,,,https://xn--o39akkz01az4ip7f4xzwoa.com/images/header_logo.png
496,영등포구,샐러디 롯데마트서울양평점,서울 영등포구 선유로 138,롯데마트 1층 샐러디,19,오전11시-오후8시,오후3-5시(변동있음),1,1,,1,,1,,37.52606589,126.891572,결식아동,아이 본인만,,대형 슈퍼마켓,https://xn--o39akkz01az4ip7f4xzwoa.com/images/header_logo.png
194,영등포구,디와이코퍼레이션(GalleryDIM),서울 영등포구 선유로3길 10,105호 갤러리딤,19,11:00~19:00,주말 및 공휴일,3,2,,,,99,제로웨이스트 제품 or  체험,37.51610031,126.8868154,,동반 1인,제로웨이스트 제품 or  체험,제조업체,https://xn--o39akkz01az4ip7f4xzwoa.com//file/store/194/07efa9babc2e4325a9f0a1a54993c2b7.jpg
928,영등포구,신길점추오정남원추어탕,서울 영등포구 신풍로 110,1층,19,09~21,없음(로테이션),1,2,,"01,02",,1,,37.499763,126.9183635,"결식아동,독거노인",동반 1인,,음식점,https://xn--o39akkz01az4ip7f4xzwoa.com//file/store/928/3b6272f5a4dc4da9b92bb91ff0a5f2a1.jpg
122,영등포구,더복희네,서울 영등포구 의사당대로 26,지하1층 113호 더복희네,19,오전11:00~오후10:00,없음,1,2,,1,,99,1인 1메뉴 제공가능합니다.,37.52653714,126.9181067,결식아동,동반 1인,1인 1메뉴 제공가능합니다.,한식당,https://xn--o39akkz01az4ip7f4xzwoa.com//file/store/122/cf151e8fabbd4368888e42048e5798fa.png
445,용산구,본도시락 한남점,서울 용산구 독서당로 22,107호,3,09:00~20:00,일요일,1,2,,1,,1,,37.53016316,127.0078018,결식아동,동반 1인,,음식점,https://xn--o39akkz01az4ip7f4xzwoa.com//file/store/445/9f84d2acff574c8cbc1c570745f0828a.jpg
29,용산구,아힘사 요가&명상,서울 용산구 새창로 217,805호,3,6:30-22:00,"법정공휴일, 주말",99,2,,1,,99,요가 일반 수련,37.53021668,126.9677763,결식아동,동반 1인,요가 일반 수련,,https://xn--o39akkz01az4ip7f4xzwoa.com/images/header_logo.png
295,용산구,더트레인,서울 용산구 청파로 74,전자랜드 본관 5층 B501호,3,11시~20시,없음,1,2,,"01,02,99",군장병,99,음료 및 기차모디오라마 10분 무료,37.53278886,126.9595585,"결식아동,독거노인,군장병",동반 1인,음료 및 기차모디오라마 1분 무료,쇼핑몰,https://xn--o39akkz01az4ip7f4xzwoa.com//file/store/295/3b1bb4a6c2024826bfc08105cbbb7661.jpg
889,용산구,인스타일,서울 용산구 한강대로23길 55,용산역내인포메이션앞꽃집,3,08~23,연중무휴,99,1,,1,,2,,37.5297718,126.9647415,결식아동,아이 본인만,,뷔페 식당,https://xn--o39akkz01az4ip7f4xzwoa.com//file/store/889/87636ad8f10b4ee7a025e2b02d6dc18f.jpg
113,용산구,얌샘김밥 남영점,서울 용산구 한강대로77길 18,1층 얌샘김밥,3,07시 ~ 24시,명절 휴무,1,1,,1,,2,,37.54207521,126.9716704,결식아동,아이 본인만,,간이음식점,https://xn--o39akkz01az4ip7f4xzwoa.com//file/store/113/77d091c6d48a4f19951ed3b01dea6301.jpg
812,은평구,선경하우징,서울 은평구 갈현동 509-1,1층,13,09~19시,없음,3,1,,1,,1,,37.61519564,126.911789,결식아동,아이 본인만,,,https://xn--o39akkz01az4ip7f4xzwoa.com/images/header_logo.png
764,은평구,일월만두,서울 은평구 서오릉로 72,1층,13,아침 10시~ 저녁 9시반,매주일요일,1,1,,1,,99,아이가 먹고싶은거,37.60685272,126.9226733,결식아동,아이 본인만,아이가 먹고싶은거,음식점,https://xn--o39akkz01az4ip7f4xzwoa.com//file/store/764/52b4dad15bb3408298ff15c434b4b2cb.jpg
332,은평구,로드락후라이드 은평신사점,서울 은평구 신사동 7-24,1층 로드락후라이드,13,14:00 ~ 02:00,없음,1,2,,1,,2,,37.60144952,126.9104816,결식아동,동반 1인,,,https://xn--o39akkz01az4ip7f4xzwoa.com//file/store/332/25c459ab943444119f1fdeb49293b65d.jpg
919,은평구,달아요,서울 은평구 연서로48길 11,514동 상가 105B,13,10시부터 2시,없음,99,2,,"01,02,99",독거노인,99,과일,37.6377915,126.936819,"결식아동,독거노인,독거노인",동반 1인,과일,,https://xn--o39akkz01az4ip7f4xzwoa.com//file/store/919/b2e72e65a6474a34981ec217be41dc98.jpg
81,은평구,단발소녀,서울 은평구 응암로 285,1층 카페단발소녀,13,11~21,없음,1,1,,"01,02,99",국가유공자,1,,37.5971843,126.9197235,"결식아동,독거노인,국가유공자",아이 본인만,,커피숍/커피 전문점,https://xn--o39akkz01az4ip7f4xzwoa.com//file/store/81/a5b77599afe84851938ee3a122a0ee93.jpg
730,은평구,갓츠킹 가마솥돈까스 진관점,서울 은평구 진관1로 21-39,1층 108호 갓츠킹 가마솥돈까스 진,13,11:00~21 :00/ 라스트오더 20:00,,1,1,,1,,99,아이가 먹고싶은거,37.63386256,126.9185725,결식아동,아이 본인만,아이가 먹고싶은거,돈까스 전문식당,https://xn--o39akkz01az4ip7f4xzwoa.com//file/store/730/e034f2efbb5043bb874d97a6e5489c24.jpg
441,은평구,갈현동할머니떡볶이,서울 은평구 진관3로 67,911동103호 갈현동할머니떡볶이,13,10:30~19:30,"일,월요일",1,1,,1,,1,,37.64276446,126.9209327,결식아동,아이 본인만,,김밥전문점,https://xn--o39akkz01az4ip7f4xzwoa.com//file/store/441/ca8cc65667a14126858ed1ec2b861dd6.jpg
805,종로구,콤콤오락실,서울 종로구 옥인길 28,1층,1,24시간,없음,99,1,,1,,1,,37.58097324,126.9672412,결식아동,아이 본인만,,전자오락실,https://xn--o39akkz01az4ip7f4xzwoa.com//file/store/805/6ed8b2bbd74a41bcb2e78f2ed56a8f6a.jpg
505,종로구,부산아지매국밥 트윈트리타워점,서울 종로구 율곡로 6,104-1101,1,10:30~19:30,일요일 격주 휴무,1,2,,1,,1,,37.57545386,126.9797758,결식아동,동반 1인,,회사 사무실,https://xn--o39akkz01az4ip7f4xzwoa.com//file/store/505/47ba1985c82e4023a8bba2817416eec0.png
692,종로구,연혜인참치,서울 종로구 종로 286,2층연혜인참치,1,오전10:00~오후10:00까지,15:00~16:30까지,99,2,,1,,99,초밥.매운탕(대구.알탕.회덮밥.알밥,37.57085836,127.0103483,결식아동,동반 1인,초밥.매운탕(대구.알탕.회덮밥.알밥,참치 전문점,https://xn--o39akkz01az4ip7f4xzwoa.com/images/header_logo.png
310,종로구,"레기돌(넘버나인,해피필링)",서울 종로구 창신동 436-64,1층 102호 넘버나인,1,밤12-낮12시,일요일,99,1,,1,,1,,37.57011375,127.0147848,결식아동,아이 본인만,,,https://xn--o39akkz01az4ip7f4xzwoa.com//file/store/310/95278f322d194014b8ba78e9327910ac.jpeg
630,종로구,레이지버거클럽,서울 종로구 창의문로11길 23,2층,1,11:30 - 21:00,15:00 - 16:30,1,3,,1,,1,,37.59338974,126.9615712,결식아동,동반 2인,,햄버거 전문점,https://xn--o39akkz01az4ip7f4xzwoa.com/images/header_logo.png
783,종로구,교촌치킨평창점,서울 종로구 평창문화로 75,글로리아타운 A동 107호,1,12:00~23:30,"구정, 추석",1,2,,"01,02",,1,,37.60686264,126.9690062,"결식아동,독거노인",동반 1인,,닭요리전문점,https://xn--o39akkz01az4ip7f4xzwoa.com/images/header_logo.png
736,중구,공일부엌,서울 중구 만리재로 209,1층,2,11시~10시,3시~5시,1,3,,"01,02",,1,,37.55606592,126.9681386,"결식아동,독거노인",동반 2인,,한식당,https://xn--o39akkz01az4ip7f4xzwoa.com//file/store/736/0b2fdb94f44b4884aefc36cad522ee15.jpg
721,중랑구,소소한얼,서울 중랑구 겸재로50길 53,지하1층,8,11:00~23:00,없음,1,3,,"01,02,99",독거노인,99,식혜.수정과,37.58907805,127.0931941,"결식아동,독거노인,독거노인",동반 2인,식혜.수정과,,https://xn--o39akkz01az4ip7f4xzwoa.com//file/store/721/df12e68ebb0f4925b3e09b49adad1f9a.jpg
25,중랑구,쌀똑핫도그 태릉점,서울 중랑구 공릉로12가길 29,1층,8,평일 1시 - 12시  주말 11시 - 12시,없음,1,1,,"01,02",,1,,37.61727613,127.0810183,"결식아동,독거노인",아이 본인만,,음식점,https://xn--o39akkz01az4ip7f4xzwoa.com//file/store/25/99671c86392449bdb9281a96e8b37eb2.jpg
126,중랑구,카페더메뉴얼,서울 중랑구 동일로157길 65,1층,8,11:00-20:00,매주 수요일 휴무,1,99,가족이나 친구들과 함께 와도 좋습니다,"01,99",독거노인 어르신,1,,37.60933564,127.0741511,"결식아동,독거노인 어르신",가족이나 친구들과 함께 와도 좋습니다,,카페,https://xn--o39akkz01az4ip7f4xzwoa.com/images/header_logo.png
109,중랑구,함평국밥,서울 중랑구 봉우재로33길 73,함평국밥,8,오전 11:30오픈 오후 10시 마감,일요일,1,2,,1,,99,국밥/비빔밥,37.59547032,127.0892169,결식아동,동반 1인,국밥/비빔밥,음식점,https://xn--o39akkz01az4ip7f4xzwoa.com//file/store/109/9dcd4aafc6904450a7ddaf80e2ebf9aa.jpeg
319,중랑구,네네치킨신내1점,서울 중랑구 신내로 135,네네치킨,8,18:00~24:00,매주월요일,1,1,,1,,1,,37.6113848,127.0958495,결식아동,아이 본인만,,후라이드/양념치킨집,https://xn--o39akkz01az4ip7f4xzwoa.com//file/store/319/31f6e3d9a0984c3d9ba4490cc9a37586.jpg
911,중랑구,마석감자탕,서울 중랑구 신내로10길 29,1층,8,10:00 ~22:00,15:00 ~16:00,1,1,,"01,02",,99,뼈해장국 / 돈가스 / 뚝배기불고기,37.60451914,127.0972138,"결식아동,독거노인",아이 본인만,뼈해장국 / 돈가스 / 뚝배기불고기,한식당,https://xn--o39akkz01az4ip7f4xzwoa.com//file/store/911/8393ed18293a48159634ad62b1f56806.jpg
376,중랑구,브리즈,서울 중랑구 용마산로100길 7,1층 Breeze,8,평일 09시 ~ 18시,"매주 일요일, 첫째/셋째 토요일",1,2,,"01,02",,1,,37.59161095,127.0986946,"결식아동,독거노인",동반 1인,,한식당,https://xn--o39akkz01az4ip7f4xzwoa.com//file/store/376/5e3a6269e4a94542b1604f4ae1417441.jpeg
